CCSDS_OMM_VERS = 2.0
CREATION_DATE  = 
ORIGINATOR     = 

OBJECT_NAME    = ATLAS CENTAUR 2
OBJECT_ID      = 1963-047A
CENTER_NAME    = EARTH
REF_FRAME      = TEME
TIME_SYSTEM    = UTC
MEAN_ELEMENT_THEORY = SGP/SGP4

EPOCH          = 2026-01-25T11:48:13.209120
MEAN_MOTION    = 14.11942457
ECCENTRICITY   = .0548174
INCLINATION    = 30.3531
RA_OF_ASC_NODE = 77.0287
ARG_OF_PERICENTER = 59.6392
MEAN_ANOMALY   = 305.7255

EPHEMERIS_TYPE = 0
CLASSIFICATION_TYPE = U
NORAD_CAT_ID   = 694
ELEMENT_SET_NO = 999
REV_AT_EPOCH   = 12551
BSTAR          = .24649E-3
MEAN_MOTION_DOT = .2091E-4
MEAN_MOTION_DDOT = 0

CCSDS_OMM_VERS = 2.0
CREATION_DATE  = 
ORIGINATOR     = 

OBJECT_NAME    = THOR AGENA D R/B
OBJECT_ID      = 1964-002A
CENTER_NAME    = EARTH
REF_FRAME      = TEME
TIME_SYSTEM    = UTC
MEAN_ELEMENT_THEORY = SGP/SGP4

EPOCH          = 2026-01-25T11:19:12.685440
MEAN_MOTION    = 14.33990259
ECCENTRICITY   = .0033341
INCLINATION    = 99.1227
RA_OF_ASC_NODE = 36.4576
ARG_OF_PERICENTER = 25.9134
MEAN_ANOMALY   = 334.3710

EPHEMERIS_TYPE = 0
CLASSIFICATION_TYPE = U
NORAD_CAT_ID   = 733
ELEMENT_SET_NO = 999
REV_AT_EPOCH   = 23210
BSTAR          = .15336E-3
MEAN_MOTION_DOT = .382E-5
MEAN_MOTION_DDOT = 0

CCSDS_OMM_VERS = 2.0
CREATION_DATE  = 
ORIGINATOR     = 

OBJECT_NAME    = SL-3 R/B
OBJECT_ID      = 1964-053B
CENTER_NAME    = EARTH
REF_FRAME      = TEME
TIME_SYSTEM    = UTC
MEAN_ELEMENT_THEORY = SGP/SGP4

EPOCH          = 2026-01-25T12:13:21.467136
MEAN_MOTION    = 14.61320199
ECCENTRICITY   = .0077375
INCLINATION    = 65.0770
RA_OF_ASC_NODE = 97.8291
ARG_OF_PERICENTER = 305.9752
MEAN_ANOMALY   = 53.4189

EPHEMERIS_TYPE = 0
CLASSIFICATION_TYPE = U
NORAD_CAT_ID   = 877
ELEMENT_SET_NO = 999
REV_AT_EPOCH   = 26048
BSTAR          = .14031E-3
MEAN_MOTION_DOT = .599E-5
MEAN_MOTION_DDOT = 0

CCSDS_OMM_VERS = 2.0
CREATION_DATE  = 
ORIGINATOR     = 

OBJECT_NAME    = SL-8 R/B
OBJECT_ID      = 1967-045B
CENTER_NAME    = EARTH
REF_FRAME      = TEME
TIME_SYSTEM    = UTC
MEAN_ELEMENT_THEORY = SGP/SGP4

EPOCH          = 2026-01-25T11:04:29.146080
MEAN_MOTION    = 14.45582553
ECCENTRICITY   = .006284
INCLINATION    = 74.0101
RA_OF_ASC_NODE = 68.8201
ARG_OF_PERICENTER = 86.4252
MEAN_ANOMALY   = 274.4090

EPHEMERIS_TYPE = 0
CLASSIFICATION_TYPE = U
NORAD_CAT_ID   = 2802
ELEMENT_SET_NO = 999
REV_AT_EPOCH   = 8277
BSTAR          = .13145E-3
MEAN_MOTION_DOT = .448E-5
MEAN_MOTION_DDOT = 0

CCSDS_OMM_VERS = 2.0
CREATION_DATE  = 
ORIGINATOR     = 

OBJECT_NAME    = SL-8 R/B
OBJECT_ID      = 1968-040B
CENTER_NAME    = EARTH
REF_FRAME      = TEME
TIME_SYSTEM    = UTC
MEAN_ELEMENT_THEORY = SGP/SGP4

EPOCH          = 2026-01-25T10:43:22.563552
MEAN_MOTION    = 15.02897870
ECCENTRICITY   = .002601
INCLINATION    = 74.0310
RA_OF_ASC_NODE = 42.0278
ARG_OF_PERICENTER = 237.4013
MEAN_ANOMALY   = 122.4664

EPHEMERIS_TYPE = 0
CLASSIFICATION_TYPE = U
NORAD_CAT_ID   = 3230
ELEMENT_SET_NO = 999
REV_AT_EPOCH   = 8351
BSTAR          = .42486E-3
MEAN_MOTION_DOT = .5705E-4
MEAN_MOTION_DDOT = 0

CCSDS_OMM_VERS = 2.0
CREATION_DATE  = 
ORIGINATOR     = 

OBJECT_NAME    = OAO 2
OBJECT_ID      = 1968-110A
CENTER_NAME    = EARTH
REF_FRAME      = TEME
TIME_SYSTEM    = UTC
MEAN_ELEMENT_THEORY = SGP/SGP4

EPOCH          = 2026-01-24T18:26:44.342592
MEAN_MOTION    = 14.47276271
ECCENTRICITY   = .00057585
INCLINATION    = 34.9924
RA_OF_ASC_NODE = 150.4383
ARG_OF_PERICENTER = 211.7176
MEAN_ANOMALY   = 148.3168

EPHEMERIS_TYPE = 0
CLASSIFICATION_TYPE = U
NORAD_CAT_ID   = 3597
ELEMENT_SET_NO = 999
REV_AT_EPOCH   = 1273
BSTAR          = .13875408E-3
MEAN_MOTION_DOT = .496E-5
MEAN_MOTION_DDOT = 0

CCSDS_OMM_VERS = 2.0
CREATION_DATE  = 
ORIGINATOR     = 

OBJECT_NAME    = ISIS 1
OBJECT_ID      = 1969-009A
CENTER_NAME    = EARTH
REF_FRAME      = TEME
TIME_SYSTEM    = UTC
MEAN_ELEMENT_THEORY = SGP/SGP4

EPOCH          = 2026-01-24T19:34:16.775616
MEAN_MOTION    = 11.30387674
ECCENTRICITY   = .17078526
INCLINATION    = 88.4537
RA_OF_ASC_NODE = 160.0896
ARG_OF_PERICENTER = 177.6918
MEAN_ANOMALY   = 183.3450

EPHEMERIS_TYPE = 0
CLASSIFICATION_TYPE = U
NORAD_CAT_ID   = 3669
ELEMENT_SET_NO = 999
REV_AT_EPOCH   = 34357
BSTAR          = .43298979E-3
MEAN_MOTION_DOT = .617E-5
MEAN_MOTION_DDOT = 0

CCSDS_OMM_VERS = 2.0
CREATION_DATE  = 
ORIGINATOR     = 

OBJECT_NAME    = SERT 2
OBJECT_ID      = 1970-009A
CENTER_NAME    = EARTH
REF_FRAME      = TEME
TIME_SYSTEM    = UTC
MEAN_ELEMENT_THEORY = SGP/SGP4

EPOCH          = 2026-01-25T11:36:39.304800
MEAN_MOTION    = 13.58724940
ECCENTRICITY   = .0004029
INCLINATION    = 99.2706
RA_OF_ASC_NODE = 330.9546
ARG_OF_PERICENTER = 278.9257
MEAN_ANOMALY   = 191.2549

EPHEMERIS_TYPE = 0
CLASSIFICATION_TYPE = U
NORAD_CAT_ID   = 4327
ELEMENT_SET_NO = 999
REV_AT_EPOCH   = 77402
BSTAR          = .16726E-3
MEAN_MOTION_DOT = .81E-6
MEAN_MOTION_DDOT = 0

CCSDS_OMM_VERS = 2.0
CREATION_DATE  = 
ORIGINATOR     = 

OBJECT_NAME    = SL-3 R/B
OBJECT_ID      = 1971-028B
CENTER_NAME    = EARTH
REF_FRAME      = TEME
TIME_SYSTEM    = UTC
MEAN_ELEMENT_THEORY = SGP/SGP4

EPOCH          = 2026-01-25T11:16:49.847232
MEAN_MOTION    = 15.57708707
ECCENTRICITY   = .0017957
INCLINATION    = 81.2365
RA_OF_ASC_NODE = 105.2746
ARG_OF_PERICENTER = 84.9729
MEAN_ANOMALY   = 275.3571

EPHEMERIS_TYPE = 0
CLASSIFICATION_TYPE = U
NORAD_CAT_ID   = 5118
ELEMENT_SET_NO = 999
REV_AT_EPOCH   = 98193
BSTAR          = .63432E-3
MEAN_MOTION_DOT = .47568E-3
MEAN_MOTION_DDOT = 0

CCSDS_OMM_VERS = 2.0
CREATION_DATE  = 
ORIGINATOR     = 

OBJECT_NAME    = ASTEX 1
OBJECT_ID      = 1971-089A
CENTER_NAME    = EARTH
REF_FRAME      = TEME
TIME_SYSTEM    = UTC
MEAN_ELEMENT_THEORY = SGP/SGP4

EPOCH          = 2026-01-25T07:10:43.034880
MEAN_MOTION    = 14.50711221
ECCENTRICITY   = .001398
INCLINATION    = 92.7157
RA_OF_ASC_NODE = 137.7186
ARG_OF_PERICENTER = 225.3656
MEAN_ANOMALY   = 134.6411

EPHEMERIS_TYPE = 0
CLASSIFICATION_TYPE = U
NORAD_CAT_ID   = 5560
ELEMENT_SET_NO = 999
REV_AT_EPOCH   = 85601
BSTAR          = .28553E-3
MEAN_MOTION_DOT = .1122E-4
MEAN_MOTION_DDOT = 0

CCSDS_OMM_VERS = 2.0
CREATION_DATE  = 
ORIGINATOR     = 

OBJECT_NAME    = SL-8 R/B
OBJECT_ID      = 1971-119B
CENTER_NAME    = EARTH
REF_FRAME      = TEME
TIME_SYSTEM    = UTC
MEAN_ELEMENT_THEORY = SGP/SGP4

EPOCH          = 2026-01-25T08:37:57.976320
MEAN_MOTION    = 14.36670771
ECCENTRICITY   = .0555407
INCLINATION    = 73.8862
RA_OF_ASC_NODE = 256.6404
ARG_OF_PERICENTER = 232.1251
MEAN_ANOMALY   = 122.8432

EPHEMERIS_TYPE = 0
CLASSIFICATION_TYPE = U
NORAD_CAT_ID   = 5730
ELEMENT_SET_NO = 999
REV_AT_EPOCH   = 64926
BSTAR          = .44771E-3
MEAN_MOTION_DOT = .8609E-4
MEAN_MOTION_DDOT = 0

CCSDS_OMM_VERS = 2.0
CREATION_DATE  = 
ORIGINATOR     = 

OBJECT_NAME    = OAO 3 (COPERNICUS)
OBJECT_ID      = 1972-065A
CENTER_NAME    = EARTH
REF_FRAME      = TEME
TIME_SYSTEM    = UTC
MEAN_ELEMENT_THEORY = SGP/SGP4

EPOCH          = 2026-01-25T12:18:08.093952
MEAN_MOTION    = 14.59954789
ECCENTRICITY   = .0006418
INCLINATION    = 35.0040
RA_OF_ASC_NODE = 183.3040
ARG_OF_PERICENTER = 173.5386
MEAN_ANOMALY   = 234.7757

EPHEMERIS_TYPE = 0
CLASSIFICATION_TYPE = U
NORAD_CAT_ID   = 6153
ELEMENT_SET_NO = 999
REV_AT_EPOCH   = 83988
BSTAR          = .15276E-3
MEAN_MOTION_DOT = .723E-5
MEAN_MOTION_DDOT = 0

