ATLAS CENTAUR 2         
1 00694U 63047A   26025.49181955  .00002091  00000+0  24649-3 0  9995
2 00694  30.3531  77.0287 0548174  59.6392 305.7255 14.11942457125519
THOR AGENA D R/B        
1 00733U 64002A   26025.47167460  .00000382  00000+0  15336-3 0  9998
2 00733  99.1227  36.4576 0033341  25.9134 334.3710 14.33990259232108
SL-3 R/B                
1 00877U 64053B   26025.50927624  .00000599  00000+0  14031-3 0  9994
2 00877  65.0770  97.8291 0077375 305.9752  53.4189 14.61320199260481
SL-8 R/B                
1 02802U 67045B   26025.46144845  .00000448  00000+0  13145-3 0  9997
2 02802  74.0101  68.8201 0062840  86.4252 274.4090 14.45582553 82771
SL-8 R/B                
1 03230U 68040B   26025.44678893  .00005705  00000+0  42486-3 0  9993
2 03230  74.0310  42.0278 0026010 237.4013 122.4664 15.02897870 83516
OAO 2                   
1 03597U 68110A   26024.76856878  .00000496  00000+0  13875-3 0  9994
2 03597  34.9924 150.4383 0005758 211.7176 148.3168 14.47276271 12736
ISIS 1                  
1 03669U 69009A   26024.81547194  .00000617  00000+0  43299-3 0  9994
2 03669  88.4537 160.0896 1707852 177.6918 183.3450 11.30387674343576
SERT 2                  
1 04327U 70009A   26025.48378825  .00000081  00000+0  16726-3 0  9995
2 04327  99.2706 330.9546 0004029 278.9257 191.2549 13.58724940774020
SL-3 R/B                
1 05118U 71028B   26025.47002138  .00047568  00000+0  63432-3 0  9993
2 05118  81.2365 105.2746 0017957  84.9729 275.3571 15.57708707981932
ASTEX 1                 
1 05560U 71089A   26025.29910920  .00001122  00000+0  28553-3 0  9999
2 05560  92.7157 137.7186 0013980 225.3656 134.6411 14.50711221856016
SL-8 R/B                
1 05730U 71119B   26025.35969880  .00008609  00000+0  44771-3 0  9995
2 05730  73.8862 256.6404 0555407 232.1251 122.8432 14.36670771649261
OAO 3 (COPERNICUS)      
1 06153U 72065A   26025.51259368  .00000723  00000+0  15276-3 0  9994
2 06153  35.0040 183.3040 0006418 173.5386 234.7757 14.59954789839882
